start=new Date('2023-01-31T00:00:00.000Z').valueOf();
sats=[{"TLE_LINE2":"2 53244  53.2155 253.7677 0001114  90.3698 269.7422 15.08869625 30083","PERIOD":"95.436","ECCENTRICITY":"0.00011140","CLASSIFICATION_TYPE":"U","REF_FRAME":"TEME","EPOCH":"2023-01-30T22:17:37.467168","OBJECT_ID":"2022-086C","DECAY_DATE":null,"COUNTRY_CODE":"US","MEAN_MOTION_DDOT":"0.0000000000000","OBJECT_NAME":"STARLINK-4125","MEAN_ELEMENT_THEORY":"SGP4","BSTAR":"0.00060841000000","MEAN_MOTION_DOT":"0.00009416","MEAN_MOTION":"15.08869625","GP_ID":"224056335","REV_AT_EPOCH":"3008","ARG_OF_PERICENTER":"90.3698","EPHEMERIS_TYPE":"0","FILE":"3765849","TIME_SYSTEM":"UTC","RCS_SIZE":"LARGE","RA_OF_ASC_NODE":"253.7677","APOAPSIS":"540.425","NORAD_CAT_ID":"53244","TLE_LINE1":"1 53244U 22086C   23030.92890587  .00009416  00000-0  60841-3 0  9994","OBJECT_TYPE":"PAYLOAD","SITE":"AFETR","ELEMENT_SET_NO":"999","SEMIMAJOR_AXIS":"6917.790","MEAN_ANOMALY":"269.7422","PERIAPSIS":"538.884","LAUNCH_DATE":"2022-07-24","CENTER_NAME":"EARTH","INCLINATION":"53.2155"},{"INCLINATION":"53.2163","PERIAPSIS":"538.905","LAUNCH_DATE":"2022-07-24","CENTER_NAME":"EARTH","MEAN_ANOMALY":"267.8984","SEMIMAJOR_AXIS":"6917.883","OBJECT_TYPE":"PAYLOAD","SITE":"AFETR","ELEMENT_SET_NO":"999","RA_OF_ASC_NODE":"254.0329","RCS_SIZE":"LARGE","TIME_SYSTEM":"UTC","APOAPSIS":"540.592","NORAD_CAT_ID":"53245","TLE_LINE1":"1 53245U 22086D   23030.87004201 -.00000271  00000-0  10851-5 0  9998","MEAN_MOTION":"15.08839016","REV_AT_EPOCH":"3009","GP_ID":"224057578","ARG_OF_PERICENTER":"92.2148","FILE":"3765849","EPHEMERIS_TYPE":"0","BSTAR":"0.00000108510000","MEAN_MOTION_DOT":"-0.00000271","COUNTRY_CODE":"US","MEAN_ELEMENT_THEORY":"SGP4","MEAN_MOTION_DDOT":"0.0000000000000","OBJECT_NAME":"STARLINK-4124","REF_FRAME":"TEME","OBJECT_ID":"2022-086D","EPOCH":"2023-01-30T20:52:51.629664","DECAY_DATE":null,"ECCENTRICITY":"0.00012190","CLASSIFICATION_TYPE":"U","PERIOD":"95.438","TLE_LINE2":"2 53245  53.2163 254.0329 0001219  92.2148 267.8984 15.08839016 30092"},{"OBJECT_ID":"2022-086E","EPOCH":"2023-01-30T16:01:24.375936","REF_FRAME":"TEME","DECAY_DATE":null,"MEAN_MOTION_DOT":"-0.00000226","BSTAR":"0.00000387090000","MEAN_MOTION_DDOT":"0.0000000000000","OBJECT_NAME":"STARLINK-4131","MEAN_ELEMENT_THEORY":"SGP4","COUNTRY_CODE":"US","PERIOD":"95.438","TLE_LINE2":"2 53246  53.2160 254.9420 0001328  89.2505 270.8639 15.08838166 28931","ECCENTRICITY":"0.00013280","CLASSIFICATION_TYPE":"U","MEAN_ANOMALY":"270.8639","SEMIMAJOR_AXIS":"6917.886","INCLINATION":"53.2160","LAUNCH_DATE":"2022-07-24","PERIAPSIS":"538.832","CENTER_NAME":"EARTH","APOAPSIS":"540.670","NORAD_CAT_ID":"53246","RCS_SIZE":"LARGE","TIME_SYSTEM":"UTC","RA_OF_ASC_NODE":"254.9420","TLE_LINE1":"1 53246U 22086E   23030.66764324 -.00000226  00000-0  38709-5 0  9997","GP_ID":"224057826","REV_AT_EPOCH":"2893","ARG_OF_PERICENTER":"89.2505","MEAN_MOTION":"15.08838166","EPHEMERIS_TYPE":"0","FILE":"3765849","SITE":"AFETR","OBJECT_TYPE":"PAYLOAD","ELEMENT_SET_NO":"999"},{"OBJECT_TYPE":"PAYLOAD","SITE":"AFETR","ELEMENT_SET_NO":"999","MEAN_MOTION":"15.08852490","GP_ID":"224056585","ARG_OF_PERICENTER":"84.0387","REV_AT_EPOCH":"3014","EPHEMERIS_TYPE":"0","FILE":"3765849","TIME_SYSTEM":"UTC","RCS_SIZE":"LARGE","RA_OF_ASC_NODE":"249.0471","NORAD_CAT_ID":"53247","APOAPSIS":"540.850","TLE_LINE1":"1 53247U 22086F   23030.86963491  .00010595  00000-0  68256-3 0  9993","PERIAPSIS":"538.564","LAUNCH_DATE":"2022-07-24","CENTER_NAME":"EARTH","INCLINATION":"53.2109","SEMIMAJOR_AXIS":"6917.842","MEAN_ANOMALY":"276.0794","ECCENTRICITY":"0.00016520","CLASSIFICATION_TYPE":"U","TLE_LINE2":"2 53247  53.2109 249.0471 0001652  84.0387 276.0794 15.08852490 30149","PERIOD":"95.437","COUNTRY_CODE":"US","OBJECT_NAME":"STARLINK-4061","MEAN_MOTION_DDOT":"0.0000000000000","MEAN_ELEMENT_THEORY":"SGP4","BSTAR":"0.00068256000000","MEAN_MOTION_DOT":"0.00010595","REF_FRAME":"TEME","EPOCH":"2023-01-30T20:52:16.456224","OBJECT_ID":"2022-086F","DECAY_DATE":null},{"OBJECT_NAME":"STARLINK-4135","MEAN_MOTION_DDOT":"0.0000000000000","MEAN_ELEMENT_THEORY":"SGP4","COUNTRY_CODE":"US","MEAN_MOTION_DOT":"0.00000591","BSTAR":"0.00005520000000","DECAY_DATE":null,"EPOCH":"2023-01-30T20:46:57.274752","OBJECT_ID":"2022-086G","REF_FRAME":"TEME","CLASSIFICATION_TYPE":"U","ECCENTRICITY":"0.00010040","TLE_LINE2":"2 53248  53.2145 249.0561 0001004  81.1295 278.9811 15.08843268 30141","PERIOD":"95.437","CENTER_NAME":"EARTH","PERIAPSIS":"539.041","LAUNCH_DATE":"2022-07-24","INCLINATION":"53.2145","SEMIMAJOR_AXIS":"6917.870","MEAN_ANOMALY":"278.9811","ELEMENT_SET_NO":"999","SITE":"AFETR","OBJECT_TYPE":"PAYLOAD","EPHEMERIS_TYPE":"0","FILE":"3765849","GP_ID":"224056834","REV_AT_EPOCH":"3014","ARG_OF_PERICENTER":"81.1295","MEAN_MOTION":"15.08843268","TLE_LINE1":"1 53248U 22086G   23030.86594068  .00000591  00000-0  55200-4 0  9995","NORAD_CAT_ID":"53248","APOAPSIS":"540.430","RA_OF_ASC_NODE":"249.0561","RCS_SIZE":"LARGE","TIME_SYSTEM":"UTC"},{"BSTAR":"0.00001470000000","MEAN_MOTION_DOT":"-0.00000054","COUNTRY_CODE":"US","MEAN_MOTION_DDOT":"0.0000000000000","MEAN_ELEMENT_THEORY":"SGP4","OBJECT_NAME":"STARLINK-4128","REF_FRAME":"TEME","OBJECT_ID":"2022-086H","EPOCH":"2023-01-30T21:04:47.997984","DECAY_DATE":null,"ECCENTRICITY":"0.00012710","CLASSIFICATION_TYPE":"U","PERIOD":"95.438","TLE_LINE2":"2 53249  53.2112 244.0081 0001271  87.6252 272.4886 15.08834030 29919","INCLINATION":"53.2112","LAUNCH_DATE":"2022-07-24","PERIAPSIS":"538.884","CENTER_NAME":"EARTH","MEAN_ANOMALY":"272.4886","SEMIMAJOR_AXIS":"6917.899","OBJECT_TYPE":"PAYLOAD","SITE":"AFETR","ELEMENT_SET_NO":"999","TIME_SYSTEM":"UTC","RCS_SIZE":"LARGE","RA_OF_ASC_NODE":"244.0081","NORAD_CAT_ID":"53249","APOAPSIS":"540.643","TLE_LINE1":"1 53249U 22086H   23030.87833331 -.00000054  00000-0  14700-4 0  9991","MEAN_MOTION":"15.08834030","REV_AT_EPOCH":"2991","GP_ID":"224057082","ARG_OF_PERICENTER":"87.6252","EPHEMERIS_TYPE":"0","FILE":"3765849"},{"DECAY_DATE":null,"EPOCH":"2023-01-30T21:10:04.894176","OBJECT_ID":"2022-086J","REF_FRAME":"TEME","MEAN_MOTION_DOT":"0.00000011","BSTAR":"0.00001880000000","OBJECT_NAME":"STARLINK-4059","MEAN_MOTION_DDOT":"0.0000000000000","MEAN_ELEMENT_THEORY":"SGP4","COUNTRY_CODE":"US","PERIOD":"95.437","TLE_LINE2":"2 53250  53.2121 243.9852 0001205  89.1271 270.9860 15.08841628 29916","CLASSIFICATION_TYPE":"U","ECCENTRICITY":"0.00012050","MEAN_ANOMALY":"270.9860","SEMIMAJOR_AXIS":"6917.875","INCLINATION":"53.2121","CENTER_NAME":"EARTH","PERIAPSIS":"538.907","LAUNCH_DATE":"2022-07-24","TLE_LINE1":"1 53250U 22086J   23030.88200109  .00000011  00000-0  18800-4 0  9992","APOAPSIS":"540.574","NORAD_CAT_ID":"53250","RCS_SIZE":"LARGE","TIME_SYSTEM":"UTC","RA_OF_ASC_NODE":"243.9852","EPHEMERIS_TYPE":"0","FILE":"3765849","ARG_OF_PERICENTER":"89.1271","GP_ID":"224057330","REV_AT_EPOCH":"2991","MEAN_MOTION":"15.08841628","ELEMENT_SET_NO":"999","SITE":"AFETR","OBJECT_TYPE":"PAYLOAD"},{"SITE":"AFETR","OBJECT_TYPE":"PAYLOAD","ELEMENT_SET_NO":"999","REV_AT_EPOCH":"2989","GP_ID":"224056087","ARG_OF_PERICENTER":"82.2011","MEAN_MOTION":"15.08853259","EPHEMERIS_TYPE":"0","FILE":"3765849","APOAPSIS":"540.437","NORAD_CAT_ID":"53251","TIME_SYSTEM":"UTC","RCS_SIZE":"LARGE","RA_OF_ASC_NODE":"244.0335","TLE_LINE1":"1 53251U 22086K   23030.87096096 -.00000149  00000-0  87264-5 0  9994","PERIAPSIS":"538.973","LAUNCH_DATE":"2022-07-24","CENTER_NAME":"EARTH","INCLINATION":"53.2144","SEMIMAJOR_AXIS":"6917.840","MEAN_ANOMALY":"277.9102","ECCENTRICITY":"0.00010580","CLASSIFICATION_TYPE":"U","TLE_LINE2":"2 53251  53.2144 244.0335 0001058  82.2011 277.9102 15.08853259 29898","PERIOD":"95.437","MEAN_MOTION_DDOT":"0.0000000000000","OBJECT_NAME":"STARLINK-4129","MEAN_ELEMENT_THEORY":"SGP4","COUNTRY_CODE":"US","MEAN_MOTION_DOT":"-0.00000149","BSTAR":"0.00000872640000","EPOCH":"2023-01-30T20:54:11.026944","OBJECT_ID":"2022-086K","REF_FRAME":"TEME","DECAY_DATE":null},{"EPHEMERIS_TYPE":"0","FILE":"3765849","GP_ID":"224056336","REV_AT_EPOCH":"2991","ARG_OF_PERICENTER":"85.1745","MEAN_MOTION":"15.08834810","TLE_LINE1":"1 53252U 22086L   23030.87928290  .00001151  00000-0  90402-4 0  9995","APOAPSIS":"540.688","NORAD_CAT_ID":"53252","TIME_SYSTEM":"UTC","RCS_SIZE":"LARGE","RA_OF_ASC_NODE":"244.0007","ELEMENT_SET_NO":"999","SITE":"AFETR","OBJECT_TYPE":"PAYLOAD","SEMIMAJOR_AXIS":"6917.896","MEAN_ANOMALY":"274.9400","CENTER_NAME":"EARTH","PERIAPSIS":"538.834","LAUNCH_DATE":"2022-07-24","INCLINATION":"53.2124","TLE_LINE2":"2 53252  53.2124 244.0007 0001340  85.1745 274.9400 15.08834810 29916","PERIOD":"95.438","CLASSIFICATION_TYPE":"U","ECCENTRICITY":"0.00013400","DECAY_DATE":null,"EPOCH":"2023-01-30T21:06:10.042560","OBJECT_ID":"2022-086L","REF_FRAME":"TEME","OBJECT_NAME":"STARLINK-4132","MEAN_MOTION_DDOT":"0.0000000000000","MEAN_ELEMENT_THEORY":"SGP4","COUNTRY_CODE":"US","MEAN_MOTION_DOT":"0.00001151","BSTAR":"0.00009040200000"},{"PERIOD":"95.436","TLE_LINE2":"2 53253  53.2147 244.0490 0001343  79.3464 280.7679 15.08870874 29894","ECCENTRICITY":"0.00013430","CLASSIFICATION_TYPE":"U","EPOCH":"2023-01-30T20:48:53.646048","OBJECT_ID":"2022-086M","REF_FRAME":"TEME","DECAY_DATE":null,"MEAN_MOTION_DOT":"0.00009915","BSTAR":"0.00063965000000","MEAN_ELEMENT_THEORY":"SGP4","MEAN_MOTION_DDOT":"0.0000000000000","OBJECT_NAME":"STARLINK-4133","COUNTRY_CODE":"US","APOAPSIS":"540.580","NORAD_CAT_ID":"53253","RCS_SIZE":"MEDIUM","RA_OF_ASC_NODE":"244.0490","TIME_SYSTEM":"UTC","TLE_LINE1":"1 53253U 22086M   23030.86728757  .00009915  00000-0  63965-3 0  9990","REV_AT_EPOCH":"2989","GP_ID":"224057579","ARG_OF_PERICENTER":"79.3464","MEAN_MOTION":"15.08870874","EPHEMERIS_TYPE":"0","FILE":"3765849","SITE":"AFETR","OBJECT_TYPE":"PAYLOAD","ELEMENT_SET_NO":"999","MEAN_ANOMALY":"280.7679","SEMIMAJOR_AXIS":"6917.786","INCLINATION":"53.2147","LAUNCH_DATE":"2022-07-24","PERIAPSIS":"538.722","CENTER_NAME":"EARTH"}];
